{
  "type": "FeatureCollection",
  "features": [
    {
      "type": "Feature",
      "properties": {
        "norad_id": 28899,
        "name": "INMARSAT 4-F2 (SOUTHPAN/PRN 122)",
        "group": "gnss",
        "lat": -2.1954197767989037,
        "lon": 16.84721162225707,
        "alt_km": 35789.3751967667,
        "timestamp": "2025-12-20T09:36:01.887077+00:00",
        "meta_object_name": "INMARSAT 4-F2 (SOUTHPAN/PRN 122)",
        "meta_object_id": "2005-044A",
        "meta_epoch": "2025-12-19T11:36:51.584832",
        "meta_mean_motion": 1.00271599,
        "meta_eccentricity": 0.000243,
        "meta_inclination": 4.8599,
        "meta_ra_of_asc_node": 43.7024,
        "meta_arg_of_pericenter": 226.9441,
        "meta_mean_anomaly": 135.4029,
        "meta_ephemeris_type": 0,
        "meta_classification_type": "U",
        "meta_norad_cat_id": 28899,
        "meta_element_set_no": 999,
        "meta_rev_at_epoch": 7372,
        "meta_bstar": 0,
        "meta_mean_motion_dot": -2.4e-06,
        "meta_mean_motion_ddot": 0,
        "tle_line1": "1 28899U 05044A   25353.48393038 -.00000240  00000+0  00000+0 0  9990",
        "tle_line2": "2 28899   4.8599  43.7024 0002430 226.9441 135.4029  1.00271599 73727"
      },
      "geometry": {
        "type": "Point",
        "coordinates": [
          16.84721162225707,
          -2.1954197767989037
        ]
      }
    },
    {
      "type": "Feature",
      "properties": {
        "norad_id": 29486,
        "name": "GPS BIIRM-2 (PRN 31)",
        "group": "gnss",
        "lat": -52.26144671770655,
        "lon": 92.08288064046958,
        "alt_km": 20361.925248343377,
        "timestamp": "2025-12-20T09:36:01.887090+00:00",
        "meta_object_name": "GPS BIIRM-2 (PRN 31)",
        "meta_object_id": "2006-042A",
        "meta_epoch": "2025-12-19T11:20:28.184352",
        "meta_mean_motion": 2.00553919,
        "meta_eccentricity": 0.0107309,
        "meta_inclination": 54.695,
        "meta_ra_of_asc_node": 158.4736,
        "meta_arg_of_pericenter": 52.1217,
        "meta_mean_anomaly": 283.3875,
        "meta_ephemeris_type": 0,
        "meta_classification_type": "U",
        "meta_norad_cat_id": 29486,
        "meta_element_set_no": 999,
        "meta_rev_at_epoch": 14078,
        "meta_bstar": 0,
        "meta_mean_motion_dot": 6.9e-07,
        "meta_mean_motion_ddot": 0,
        "tle_line1": "1 29486U 06042A   25353.47254843  .00000069  00000+0  00000+0 0  9999",
        "tle_line2": "2 29486  54.6950 158.4736 0107309  52.1217 283.3875  2.00553919140782"
      },
      "geometry": {
        "type": "Point",
        "coordinates": [
          92.08288064046958,
          -52.26144671770655
        ]
      }
    },
    {
      "type": "Feature",
      "properties": {
        "norad_id": 29601,
        "name": "GPS BIIRM-3 (PRN 12)",
        "group": "gnss",
        "lat": -14.420052546253837,
        "lon": -149.28003510202242,
        "alt_km": 20242.54416162596,
        "timestamp": "2025-12-20T09:36:01.887102+00:00",
        "meta_object_name": "GPS BIIRM-3 (PRN 12)",
        "meta_object_id": "2006-052A",
        "meta_epoch": "2025-12-18T22:17:39.799104",
        "meta_mean_motion": 2.00574079,
        "meta_eccentricity": 0.0087942,
        "meta_inclination": 54.9692,
        "meta_ra_of_asc_node": 221.1525,
        "meta_arg_of_pericenter": 87.5066,
        "meta_mean_anomaly": 273.5974,
        "meta_ephemeris_type": 0,
        "meta_classification_type": "U",
        "meta_norad_cat_id": 29601,
        "meta_element_set_no": 999,
        "meta_rev_at_epoch": 13979,
        "meta_bstar": 0,
        "meta_mean_motion_dot": 7.7e-07,
        "meta_mean_motion_ddot": 0,
        "tle_line1": "1 29601U 06052A   25352.92893286  .00000077  00000+0  00000+0 0  9997",
        "tle_line2": "2 29601  54.9692 221.1525 0087942  87.5066 273.5974  2.00574079139795"
      },
      "geometry": {
        "type": "Point",
        "coordinates": [
          -149.28003510202242,
          -14.420052546253837
        ]
      }
    },
    {
      "type": "Feature",
      "properties": {
        "norad_id": 32260,
        "name": "GPS BIIRM-4 (PRN 15)",
        "group": "gnss",
        "lat": 41.93040397099338,
        "lon": -133.31921066287723,
        "alt_km": 19836.083430969986,
        "timestamp": "2025-12-20T09:36:01.887114+00:00",
        "meta_object_name": "GPS BIIRM-4 (PRN 15)",
        "meta_object_id": "2007-047A",
        "meta_epoch": "2025-12-19T17:36:20.111904",
        "meta_mean_motion": 2.00564307,
        "meta_eccentricity": 0.01640667,
        "meta_inclination": 53.9598,
        "meta_ra_of_asc_node": 87.4697,
        "meta_arg_of_pericenter": 85.3347,
        "meta_mean_anomaly": 276.5368,
        "meta_ephemeris_type": 0,
        "meta_classification_type": "U",
        "meta_norad_cat_id": 32260,
        "meta_element_set_no": 999,
        "meta_rev_at_epoch": 13321,
        "meta_bstar": 0,
        "meta_mean_motion_dot": -3.5e-07,
        "meta_mean_motion_ddot": 0,
        "tle_line1": "1 32260U 07047A   25353.73356611 -.00000035  00000+0  00000+0 0  9998",
        "tle_line2": "2 32260  53.9598  87.4697 0164066  85.3347 276.5368  2.00564307133212"
      },
      "geometry": {
        "type": "Point",
        "coordinates": [
          -133.31921066287723,
          41.93040397099338
        ]
      }
    },
    {
      "type": "Feature",
      "properties": {
        "norad_id": 32275,
        "name": "COSMOS 2433 (720)",
        "group": "gnss",
        "lat": -25.728500017724805,
        "lon": 154.51376104766584,
        "alt_km": 19124.22983342425,
        "timestamp": "2025-12-20T09:36:01.887126+00:00",
        "meta_object_name": "COSMOS 2433 (720)",
        "meta_object_id": "2007-052A",
        "meta_epoch": "2025-12-19T04:33:13.000320",
        "meta_mean_motion": 2.13104199,
        "meta_eccentricity": 0.0005237,
        "meta_inclination": 65.6796,
        "meta_ra_of_asc_node": 321.9886,
        "meta_arg_of_pericenter": 255.1824,
        "meta_mean_anomaly": 104.7517,
        "meta_ephemeris_type": 0,
        "meta_classification_type": "U",
        "meta_norad_cat_id": 32275,
        "meta_element_set_no": 999,
        "meta_rev_at_epoch": 14122,
        "meta_bstar": 0,
        "meta_mean_motion_dot": -5.9e-07,
        "meta_mean_motion_ddot": 0,
        "tle_line1": "1 32275U 07052A   25353.18973380 -.00000059  00000+0  00000+0 0  9993",
        "tle_line2": "2 32275  65.6796 321.9886 0005237 255.1824 104.7517  2.13104199141226"
      },
      "geometry": {
        "type": "Point",
        "coordinates": [
          154.51376104766584,
          -25.728500017724805
        ]
      }
    },
    {
      "type": "Feature",
      "properties": {
        "norad_id": 32276,
        "name": "COSMOS 2432 (719)",
        "group": "gnss",
        "lat": 24.533741740821366,
        "lon": 130.15622399266277,
        "alt_km": 19154.505124448,
        "timestamp": "2025-12-20T09:36:01.887138+00:00",
        "meta_object_name": "COSMOS 2432 (719)",
        "meta_object_id": "2007-052B",
        "meta_epoch": "2025-12-19T12:16:13.975104",
        "meta_mean_motion": 2.13103394,
        "meta_eccentricity": 0.0011354,
        "meta_inclination": 65.6952,
        "meta_ra_of_asc_node": 322.1022,
        "meta_arg_of_pericenter": 313.8406,
        "meta_mean_anomaly": 237.2136,
        "meta_ephemeris_type": 0,
        "meta_classification_type": "U",
        "meta_norad_cat_id": 32276,
        "meta_element_set_no": 999,
        "meta_rev_at_epoch": 14125,
        "meta_bstar": 0,
        "meta_mean_motion_dot": -5.7e-07,
        "meta_mean_motion_ddot": 0,
        "tle_line1": "1 32276U 07052B   25353.51127286 -.00000057  00000+0  00000+0 0  9995",
        "tle_line2": "2 32276  65.6952 322.1022 0011354 313.8406 237.2136  2.13103394141259"
      },
      "geometry": {
        "type": "Point",
        "coordinates": [
          130.15622399266277,
          24.533741740821366
        ]
      }
    },
    {
      "type": "Feature",
      "properties": {
        "norad_id": 32384,
        "name": "GPS BIIRM-5 (PRN 29)",
        "group": "gnss",
        "lat": -51.75028200319335,
        "lon": 163.16934751353605,
        "alt_km": 20187.51006734577,
        "timestamp": "2025-12-20T09:36:01.887149+00:00",
        "meta_object_name": "GPS BIIRM-5 (PRN 29)",
        "meta_object_id": "2007-062A",
        "meta_epoch": "2025-12-19T04:08:10.010976",
        "meta_mean_motion": 2.00577702,
        "meta_eccentricity": 0.00322663,
        "meta_inclination": 55.1765,
        "meta_ra_of_asc_node": 281.388,
        "meta_arg_of_pericenter": 162.2119,
        "meta_mean_anomaly": 283.9132,
        "meta_ephemeris_type": 0,
        "meta_classification_type": "U",
        "meta_norad_cat_id": 32384,
        "meta_element_set_no": 999,
        "meta_rev_at_epoch": 13190,
        "meta_bstar": 0,
        "meta_mean_motion_dot": -3.8e-07,
        "meta_mean_motion_ddot": 0,
        "tle_line1": "1 32384U 07062A   25353.17233809 -.00000038  00000+0  00000+0 0  9996",
        "tle_line2": "2 32384  55.1765 281.3880 0032266 162.2119 283.9132  2.00577702131904"
      },
      "geometry": {
        "type": "Point",
        "coordinates": [
          163.16934751353605,
          -51.75028200319335
        ]
      }
    }
  ]
}